STARLINK-36579          
1 67541U 26014K   26046.15451727  .00199099  00000+0  13025-2 0  9995
2 67541  97.2842 289.9404 0002129  67.7545 292.3946 15.75230864  5024
STARLINK-35934          
1 67542U 26014L   26046.13026586  .00238296  00000+0  12066-2 0  9992
2 67542  97.2838 289.9739 0001271  97.6465 262.4947 15.80898478  5016
STARLINK-36581          
1 67543U 26014M   26046.12936620 -.00840307  00000+0 -51920-2 0  9997
2 67543  97.2842 289.9739 0000761 146.7606 213.3710 15.79220877  5022
STARLINK-36565          
1 67544U 26014N   26046.16668981  .00047314  00000+0  31630-3 0  9996
2 67544  97.2893 290.0007 0001582  89.3845  93.7421 15.75191980  5060
STARLINK-36583          
1 67545U 26014P   26046.15839525  .00278321  00000+0  18002-2 0  9991
2 67545  97.2848 289.9329 0001839  94.5442 265.6033 15.75273037  5020
STARLINK-36580          
1 67546U 26014Q   26046.14039820  .00206018  00000+0  13461-2 0  9999
2 67546  97.2844 289.9585 0001335  71.2351 288.9059 15.75240869  5026
STARLINK-36584          
1 67547U 26014R   26045.93470901  .00166838  00000+0  85314-3 0  9997
2 67547  97.2862 289.7731 0001669 110.4600 249.6848 15.80868361  4995
STARLINK-36586          
1 67548U 26014S   26045.93334440  .00079851  00000+0  41361-3 0  9997
2 67548  97.2848 289.7825 0001833  75.5185 284.6287 15.80825724  4998
STARLINK-36564          
1 67549U 26014T   26046.14851212  .00154564  00000+0  10169-2 0  9999
2 67549  97.2844 289.9475 0001143  97.0433 263.0962 15.75226007  4968
STARLINK-36563          
1 67550U 26014U   26046.14427949  .00250203  00000+0  16248-2 0  9998
2 67550  97.2842 289.9527 0001656 111.4174 248.7268 15.75258546  5028
STARLINK-36566          
1 67551U 26014V   26046.14216337  .00152498  00000+0  10038-2 0  9994
2 67551  97.2844 289.9558 0001445  89.6585 270.4845 15.75219679  5019
STARLINK-36567          
1 67552U 26014W   26046.15063476  .00228495  00000+0  14884-2 0  9994
2 67552  97.2853 289.9404 0001960  68.1603 291.9871 15.75247496  5010
