CCSDS_OMM_VERS = 2.0
CREATION_DATE  = 
ORIGINATOR     = 

OBJECT_NAME    = STARLINK-36579
OBJECT_ID      = 2026-014K
CENTER_NAME    = EARTH
REF_FRAME      = TEME
TIME_SYSTEM    = UTC
MEAN_ELEMENT_THEORY = SGP/SGP4

EPOCH          = 2026-02-15T03:42:30.292128
MEAN_MOTION    = 15.75230864
ECCENTRICITY   = .0002129
INCLINATION    = 97.2842
RA_OF_ASC_NODE = 289.9404
ARG_OF_PERICENTER = 67.7545
MEAN_ANOMALY   = 292.3946

EPHEMERIS_TYPE = 0
CLASSIFICATION_TYPE = U
NORAD_CAT_ID   = 67541
ELEMENT_SET_NO = 999
REV_AT_EPOCH   = 502
BSTAR          = .13025E-2
MEAN_MOTION_DOT = .199099E-2
MEAN_MOTION_DDOT = 0

CCSDS_OMM_VERS = 2.0
CREATION_DATE  = 
ORIGINATOR     = 

OBJECT_NAME    = STARLINK-35934
OBJECT_ID      = 2026-014L
CENTER_NAME    = EARTH
REF_FRAME      = TEME
TIME_SYSTEM    = UTC
MEAN_ELEMENT_THEORY = SGP/SGP4

EPOCH          = 2026-02-15T03:07:34.970304
MEAN_MOTION    = 15.80898478
ECCENTRICITY   = .0001271
INCLINATION    = 97.2838
RA_OF_ASC_NODE = 289.9739
ARG_OF_PERICENTER = 97.6465
MEAN_ANOMALY   = 262.4947

EPHEMERIS_TYPE = 0
CLASSIFICATION_TYPE = U
NORAD_CAT_ID   = 67542
ELEMENT_SET_NO = 999
REV_AT_EPOCH   = 501
BSTAR          = .12066E-2
MEAN_MOTION_DOT = .238296E-2
MEAN_MOTION_DDOT = 0

CCSDS_OMM_VERS = 2.0
CREATION_DATE  = 
ORIGINATOR     = 

OBJECT_NAME    = STARLINK-36581
OBJECT_ID      = 2026-014M
CENTER_NAME    = EARTH
REF_FRAME      = TEME
TIME_SYSTEM    = UTC
MEAN_ELEMENT_THEORY = SGP/SGP4

EPOCH          = 2026-02-15T03:06:17.239680
MEAN_MOTION    = 15.79220877
ECCENTRICITY   = .0000761
INCLINATION    = 97.2842
RA_OF_ASC_NODE = 289.9739
ARG_OF_PERICENTER = 146.7606
MEAN_ANOMALY   = 213.3710

EPHEMERIS_TYPE = 0
CLASSIFICATION_TYPE = U
NORAD_CAT_ID   = 67543
ELEMENT_SET_NO = 999
REV_AT_EPOCH   = 502
BSTAR          = -.5192E-2
MEAN_MOTION_DOT = -.840307E-2
MEAN_MOTION_DDOT = 0

CCSDS_OMM_VERS = 2.0
CREATION_DATE  = 
ORIGINATOR     = 

OBJECT_NAME    = STARLINK-36565
OBJECT_ID      = 2026-014N
CENTER_NAME    = EARTH
REF_FRAME      = TEME
TIME_SYSTEM    = UTC
MEAN_ELEMENT_THEORY = SGP/SGP4

EPOCH          = 2026-02-15T04:00:01.999584
MEAN_MOTION    = 15.75191980
ECCENTRICITY   = .0001582
INCLINATION    = 97.2893
RA_OF_ASC_NODE = 290.0007
ARG_OF_PERICENTER = 89.3845
MEAN_ANOMALY   = 93.7421

EPHEMERIS_TYPE = 0
CLASSIFICATION_TYPE = U
NORAD_CAT_ID   = 67544
ELEMENT_SET_NO = 999
REV_AT_EPOCH   = 506
BSTAR          = .3163E-3
MEAN_MOTION_DOT = .47314E-3
MEAN_MOTION_DDOT = 0

CCSDS_OMM_VERS = 2.0
CREATION_DATE  = 
ORIGINATOR     = 

OBJECT_NAME    = STARLINK-36583
OBJECT_ID      = 2026-014P
CENTER_NAME    = EARTH
REF_FRAME      = TEME
TIME_SYSTEM    = UTC
MEAN_ELEMENT_THEORY = SGP/SGP4

EPOCH          = 2026-02-15T03:48:05.349600
MEAN_MOTION    = 15.75273037
ECCENTRICITY   = .0001839
INCLINATION    = 97.2848
RA_OF_ASC_NODE = 289.9329
ARG_OF_PERICENTER = 94.5442
MEAN_ANOMALY   = 265.6033

EPHEMERIS_TYPE = 0
CLASSIFICATION_TYPE = U
NORAD_CAT_ID   = 67545
ELEMENT_SET_NO = 999
REV_AT_EPOCH   = 502
BSTAR          = .18002E-2
MEAN_MOTION_DOT = .278321E-2
MEAN_MOTION_DDOT = 0

CCSDS_OMM_VERS = 2.0
CREATION_DATE  = 
ORIGINATOR     = 

OBJECT_NAME    = STARLINK-36580
OBJECT_ID      = 2026-014Q
CENTER_NAME    = EARTH
REF_FRAME      = TEME
TIME_SYSTEM    = UTC
MEAN_ELEMENT_THEORY = SGP/SGP4

EPOCH          = 2026-02-15T03:22:10.404480
MEAN_MOTION    = 15.75240869
ECCENTRICITY   = .0001335
INCLINATION    = 97.2844
RA_OF_ASC_NODE = 289.9585
ARG_OF_PERICENTER = 71.2351
MEAN_ANOMALY   = 288.9059

EPHEMERIS_TYPE = 0
CLASSIFICATION_TYPE = U
NORAD_CAT_ID   = 67546
ELEMENT_SET_NO = 999
REV_AT_EPOCH   = 502
BSTAR          = .13461E-2
MEAN_MOTION_DOT = .206018E-2
MEAN_MOTION_DDOT = 0

CCSDS_OMM_VERS = 2.0
CREATION_DATE  = 
ORIGINATOR     = 

OBJECT_NAME    = STARLINK-36584
OBJECT_ID      = 2026-014R
CENTER_NAME    = EARTH
REF_FRAME      = TEME
TIME_SYSTEM    = UTC
MEAN_ELEMENT_THEORY = SGP/SGP4

EPOCH          = 2026-02-14T22:25:58.858464
MEAN_MOTION    = 15.80868361
ECCENTRICITY   = .0001669
INCLINATION    = 97.2862
RA_OF_ASC_NODE = 289.7731
ARG_OF_PERICENTER = 110.4600
MEAN_ANOMALY   = 249.6848

EPHEMERIS_TYPE = 0
CLASSIFICATION_TYPE = U
NORAD_CAT_ID   = 67547
ELEMENT_SET_NO = 999
REV_AT_EPOCH   = 499
BSTAR          = .85314E-3
MEAN_MOTION_DOT = .166838E-2
MEAN_MOTION_DDOT = 0

CCSDS_OMM_VERS = 2.0
CREATION_DATE  = 
ORIGINATOR     = 

OBJECT_NAME    = STARLINK-36586
OBJECT_ID      = 2026-014S
CENTER_NAME    = EARTH
REF_FRAME      = TEME
TIME_SYSTEM    = UTC
MEAN_ELEMENT_THEORY = SGP/SGP4

EPOCH          = 2026-02-14T22:24:00.956160
MEAN_MOTION    = 15.80825724
ECCENTRICITY   = .0001833
INCLINATION    = 97.2848
RA_OF_ASC_NODE = 289.7825
ARG_OF_PERICENTER = 75.5185
MEAN_ANOMALY   = 284.6287

EPHEMERIS_TYPE = 0
CLASSIFICATION_TYPE = U
NORAD_CAT_ID   = 67548
ELEMENT_SET_NO = 999
REV_AT_EPOCH   = 499
BSTAR          = .41361E-3
MEAN_MOTION_DOT = .79851E-3
MEAN_MOTION_DDOT = 0

CCSDS_OMM_VERS = 2.0
CREATION_DATE  = 
ORIGINATOR     = 

OBJECT_NAME    = STARLINK-36564
OBJECT_ID      = 2026-014T
CENTER_NAME    = EARTH
REF_FRAME      = TEME
TIME_SYSTEM    = UTC
MEAN_ELEMENT_THEORY = SGP/SGP4

EPOCH          = 2026-02-15T03:33:51.447168
MEAN_MOTION    = 15.75226007
ECCENTRICITY   = .0001143
INCLINATION    = 97.2844
RA_OF_ASC_NODE = 289.9475
ARG_OF_PERICENTER = 97.0433
MEAN_ANOMALY   = 263.0962

EPHEMERIS_TYPE = 0
CLASSIFICATION_TYPE = U
NORAD_CAT_ID   = 67549
ELEMENT_SET_NO = 999
REV_AT_EPOCH   = 496
BSTAR          = .10169E-2
MEAN_MOTION_DOT = .154564E-2
MEAN_MOTION_DDOT = 0

CCSDS_OMM_VERS = 2.0
CREATION_DATE  = 
ORIGINATOR     = 

OBJECT_NAME    = STARLINK-36563
OBJECT_ID      = 2026-014U
CENTER_NAME    = EARTH
REF_FRAME      = TEME
TIME_SYSTEM    = UTC
MEAN_ELEMENT_THEORY = SGP/SGP4

EPOCH          = 2026-02-15T03:27:45.747936
MEAN_MOTION    = 15.75258546
ECCENTRICITY   = .0001656
INCLINATION    = 97.2842
RA_OF_ASC_NODE = 289.9527
ARG_OF_PERICENTER = 111.4174
MEAN_ANOMALY   = 248.7268

EPHEMERIS_TYPE = 0
CLASSIFICATION_TYPE = U
NORAD_CAT_ID   = 67550
ELEMENT_SET_NO = 999
REV_AT_EPOCH   = 502
BSTAR          = .16248E-2
MEAN_MOTION_DOT = .250203E-2
MEAN_MOTION_DDOT = 0

CCSDS_OMM_VERS = 2.0
CREATION_DATE  = 
ORIGINATOR     = 

OBJECT_NAME    = STARLINK-36566
OBJECT_ID      = 2026-014V
CENTER_NAME    = EARTH
REF_FRAME      = TEME
TIME_SYSTEM    = UTC
MEAN_ELEMENT_THEORY = SGP/SGP4

EPOCH          = 2026-02-15T03:24:42.915168
MEAN_MOTION    = 15.75219679
ECCENTRICITY   = .0001445
INCLINATION    = 97.2844
RA_OF_ASC_NODE = 289.9558
ARG_OF_PERICENTER = 89.6585
MEAN_ANOMALY   = 270.4845

EPHEMERIS_TYPE = 0
CLASSIFICATION_TYPE = U
NORAD_CAT_ID   = 67551
ELEMENT_SET_NO = 999
REV_AT_EPOCH   = 501
BSTAR          = .10038E-2
MEAN_MOTION_DOT = .152498E-2
MEAN_MOTION_DDOT = 0

CCSDS_OMM_VERS = 2.0
CREATION_DATE  = 
ORIGINATOR     = 

OBJECT_NAME    = STARLINK-36567
OBJECT_ID      = 2026-014W
CENTER_NAME    = EARTH
REF_FRAME      = TEME
TIME_SYSTEM    = UTC
MEAN_ELEMENT_THEORY = SGP/SGP4

EPOCH          = 2026-02-15T03:36:54.843264
MEAN_MOTION    = 15.75247496
ECCENTRICITY   = .000196
INCLINATION    = 97.2853
RA_OF_ASC_NODE = 289.9404
ARG_OF_PERICENTER = 68.1603
MEAN_ANOMALY   = 291.9871

EPHEMERIS_TYPE = 0
CLASSIFICATION_TYPE = U
NORAD_CAT_ID   = 67552
ELEMENT_SET_NO = 999
REV_AT_EPOCH   = 501
BSTAR          = .14884E-2
MEAN_MOTION_DOT = .228495E-2
MEAN_MOTION_DDOT = 0

